{"type": "FeatureCollection", "features": [ {"type": "Feature", "properties": {"norad_id": 29906, "name": "FENGYUN 1C DEB", "group": "fengyun-1c-debris", "lat": 18.51656939034657, "lon": -77.55303571701882, "alt_km": 706.3494235800908, "timestamp": "2025-12-21T20:41:08.233790+00:00", "meta": {"OBJECT_NAME": "FENGYUN 1C DEB", "OBJECT_ID": "1999-025HC", "EPOCH": "2025-12-21T13:19:19.079616", "MEAN_MOTION": 14.49773591, "ECCENTRICITY": 0.00365243, "INCLINATION": 98.7064, "RA_OF_ASC_NODE": 99.1884, "ARG_OF_PERICENTER": 123.3826, "MEAN_ANOMALY": 237.0871, "EPHEMERIS_TYPE": 0, "CLASSIFICATION_TYPE": "U", "NORAD_CAT_ID": 29906, "ELEMENT_SET_NO": 999, "REV_AT_EPOCH": 98285, "BSTAR": 0.0016707957, "MEAN_MOTION_DOT": 6.451e-05, "MEAN_MOTION_DDOT": 0}, "tle": {"line1": "1 29906U 99025HC  25355.55508194  .00006451  00000+0  16708-2 0  9997", "line2": "2 29906  98.7064  99.1884 0036524 123.3826 237.0871 14.49773591982856"}}, "geometry": {"type": "Point", "coordinates": [-77.55303571701882, 18.51656939034657]}}, {"type": "Feature", "properties": {"norad_id": 29907, "name": "FENGYUN 1C DEB", "group": "fengyun-1c-debris", "lat": 41.38137071998253, "lon": -109.19495236291856, "alt_km": 845.6581596288879, "timestamp": "2025-12-21T20:41:08.233799+00:00", "meta": {"OBJECT_NAME": "FENGYUN 1C DEB", "OBJECT_ID": "1999-025HD", "EPOCH": "2025-12-21T11:36:10.384128", "MEAN_MOTION": 14.11681771, "ECCENTRICITY": 0.00846011, "INCLINATION": 99.111, "RA_OF_ASC_NODE": 62.293, "ARG_OF_PERICENTER": 225.1477, "MEAN_ANOMALY": 151.4786, "EPHEMERIS_TYPE": 0, "CLASSIFICATION_TYPE": "U", "NORAD_CAT_ID": 29907, "ELEMENT_SET_NO": 999, "REV_AT_EPOCH": 96722, "BSTAR": 0.0015251197, "MEAN_MOTION_DOT": 2.825e-05, "MEAN_MOTION_DDOT": 0}, "tle": {"line1": "1 29907U 99025HD  25355.48345352  .00002825  00000+0  15251-2 0  9998", "line2": "2 29907  99.1110  62.2930 0084601 225.1477 151.4786 14.11681771967224"}}, "geometry": {"type": "Point", "coordinates": [-109.19495236291856, 41.38137071998253]}}, {"type": "Feature", "properties": {"norad_id": 29909, "name": "FENGYUN 1C DEB", "group": "fengyun-1c-debris", "lat": 55.861502645878126, "lon": 87.01658686901058, "alt_km": 694.0661187063024, "timestamp": "2025-12-21T20:41:08.233807+00:00", "meta": {"OBJECT_NAME": "FENGYUN 1C DEB", "OBJECT_ID": "1999-025HF", "EPOCH": "2025-12-21T12:26:57.078816", "MEAN_MOTION": 14.55252695, "ECCENTRICITY": 0.00381067, "INCLINATION": 98.6344, "RA_OF_ASC_NODE": 99.6123, "ARG_OF_PERICENTER": 347.4628, "MEAN_ANOMALY": 72.1627, "EPHEMERIS_TYPE": 0, "CLASSIFICATION_TYPE": "U", "NORAD_CAT_ID": 29909, "ELEMENT_SET_NO": 999, "REV_AT_EPOCH": 98533, "BSTAR": 0.0014564139, "MEAN_MOTION_DOT": 6.322e-05, "MEAN_MOTION_DDOT": 0}, "tle": {"line1": "1 29909U 99025HF  25355.51871619  .00006322  00000+0  14564-2 0  9996", "line2": "2 29909  98.6344  99.6123 0038106 347.4628  72.1627 14.55252695985334"}}, "geometry": {"type": "Point", "coordinates": [87.01658686901058, 55.861502645878126]}}, {"type": "Feature", "properties": {"norad_id": 29911, "name": "FENGYUN 1C DEB", "group": "fengyun-1c-debris", "lat": 81.26845058678497, "lon": -54.130698833290424, "alt_km": 805.5060203696285, "timestamp": "2025-12-21T20:41:08.233817+00:00", "meta": {"OBJECT_NAME": "FENGYUN 1C DEB", "OBJECT_ID": "1999-025HH", "EPOCH": "2025-12-21T01:55:57.200160", "MEAN_MOTION": 14.1887702, "ECCENTRICITY": 0.0027436, "INCLINATION": 98.7147, "RA_OF_ASC_NODE": 38.0508, "ARG_OF_PERICENTER": 127.8915, "MEAN_ANOMALY": 293.7361, "EPHEMERIS_TYPE": 0, "CLASSIFICATION_TYPE": "U", "NORAD_CAT_ID": 29911, "ELEMENT_SET_NO": 999, "REV_AT_EPOCH": 97549, "BSTAR": 0.00051509204, "MEAN_MOTION_DOT": 1.033e-05, "MEAN_MOTION_DDOT": 0}, "tle": {"line1": "1 29911U 99025HH  25355.08052315  .00001033  00000+0  51509-3 0  9990", "line2": "2 29911  98.7147  38.0508 0027436 127.8915 293.7361 14.18877020975492"}}, "geometry": {"type": "Point", "coordinates": [-54.130698833290424, 81.26845058678497]}}, {"type": "Feature", "properties": {"norad_id": 29912, "name": "FENGYUN 1C DEB", "group": "fengyun-1c-debris", "lat": 58.129604137794004, "lon": -72.13448325257977, "alt_km": 732.8764252444562, "timestamp": "2025-12-21T20:41:08.233826+00:00", "meta": {"OBJECT_NAME": "FENGYUN 1C DEB", "OBJECT_ID": "1999-025HJ", "EPOCH": "2025-12-20T05:58:41.998944", "MEAN_MOTION": 14.43076298, "ECCENTRICITY": 0.0043248, "INCLINATION": 98.7395, "RA_OF_ASC_NODE": 91.8872, "ARG_OF_PERICENTER": 197.2415, "MEAN_ANOMALY": 190.0813, "EPHEMERIS_TYPE": 0, "CLASSIFICATION_TYPE": "U", "NORAD_CAT_ID": 29912, "ELEMENT_SET_NO": 999, "REV_AT_EPOCH": 98147, "BSTAR": 0.0014256, "MEAN_MOTION_DOT": 4.791e-05, "MEAN_MOTION_DDOT": 0}, "tle": {"line1": "1 29912U 99025HJ  25354.24909721  .00004791  00000+0  14256-2 0  9991", "line2": "2 29912  98.7395  91.8872 0043248 197.2415 190.0813 14.43076298981476"}}, "geometry": {"type": "Point", "coordinates": [-72.13448325257977, 58.129604137794004]}}, {"type": "Feature", "properties": {"norad_id": 29913, "name": "FENGYUN 1C DEB", "group": "fengyun-1c-debris", "lat": 38.42324060406566, "lon": -178.4888260998081, "alt_km": 876.3247262372843, "timestamp": "2025-12-21T20:41:08.233834+00:00", "meta": {"OBJECT_NAME": "FENGYUN 1C DEB", "OBJECT_ID": "1999-025HK", "EPOCH": "2025-12-21T12:12:29.380032", "MEAN_MOTION": 14.0739232, "ECCENTRICITY": 0.00618658, "INCLINATION": 98.7879, "RA_OF_ASC_NODE": 354.1193, "ARG_OF_PERICENTER": 246.4119, "MEAN_ANOMALY": 266.5518, "EPHEMERIS_TYPE": 0, "CLASSIFICATION_TYPE": "U", "NORAD_CAT_ID": 29913, "ELEMENT_SET_NO": 999, "REV_AT_EPOCH": 97088, "BSTAR": 0.00022048394, "MEAN_MOTION_DOT": 3.34e-06, "MEAN_MOTION_DDOT": 0}, "tle": {"line1": "1 29913U 99025HK  25355.50867338  .00000334  00000+0  22048-3 0  9997", "line2": "2 29913  98.7879 354.1193 0061865 246.4119 266.5518 14.07392320970889"}}, "geometry": {"type": "Point", "coordinates": [-178.4888260998081, 38.42324060406566]}}, {"type": "Feature", "properties": {"norad_id": 29914, "name": "FENGYUN 1C DEB", "group": "fengyun-1c-debris", "lat": 36.610045144892716, "lon": -149.17791760683045, "alt_km": 864.0762907720627, "timestamp": "2025-12-21T20:41:08.233843+00:00", "meta": {"OBJECT_NAME": "FENGYUN 1C DEB", "OBJECT_ID": "1999-025HL", "EPOCH": "2025-12-21T01:29:14.680608", "MEAN_MOTION": 14.03132699, "ECCENTRICITY": 0.00367594, "INCLINATION": 98.8428, "RA_OF_ASC_NODE": 23.4036, "ARG_OF_PERICENTER": 92.3212, "MEAN_ANOMALY": 331.7193, "EPHEMERIS_TYPE": 0, "CLASSIFICATION_TYPE": "U", "NORAD_CAT_ID": 29914, "ELEMENT_SET_NO": 999, "REV_AT_EPOCH": 96903, "BSTAR": -5.0552515e-05, "MEAN_MOTION_DOT": -1.22e-06, "MEAN_MOTION_DDOT": 0}, "tle": {"line1": "1 29914U 99025HL  25355.06197547 -.00000122  00000+0 -50553-4 0  9997", "line2": "2 29914  98.8428  23.4036 0036759  92.3212 331.7193 14.03132699969035"}}, "geometry": {"type": "Point", "coordinates": [-149.17791760683045, 36.610045144892716]}}, {"type": "Feature", "properties": {"norad_id": 29916, "name": "FENGYUN 1C DEB", "group": "fengyun-1c-debris", "lat": 67.14901017322002, "lon": -8.079514327289438, "alt_km": 1235.4094744957983, "timestamp": "2025-12-21T20:41:08.233852+00:00", "meta": {"OBJECT_NAME": "FENGYUN 1C DEB", "OBJECT_ID": "1999-025HN", "EPOCH": "2025-12-21T06:51:27.198144", "MEAN_MOTION": 13.56993824, "ECCENTRICITY": 0.0271433, "INCLINATION": 99.1936, "RA_OF_ASC_NODE": 13.9818, "ARG_OF_PERICENTER": 236.6359, "MEAN_ANOMALY": 259.9345, "EPHEMERIS_TYPE": 0, "CLASSIFICATION_TYPE": "U", "NORAD_CAT_ID": 29916, "ELEMENT_SET_NO": 999, "REV_AT_EPOCH": 93568, "BSTAR": 0.00054366, "MEAN_MOTION_DOT": 4.48e-06, "MEAN_MOTION_DDOT": 0}, "tle": {"line1": "1 29916U 99025HN  25355.28573146  .00000448  00000+0  54366-3 0  9990", "line2": "2 29916  99.1936  13.9818 0271433 236.6359 259.9345 13.56993824935688"}}, "geometry": {"type": "Point", "coordinates": [-8.079514327289438, 67.14901017322002]}}, {"type": "Feature", "properties": {"norad_id": 29917, "name": "FENGYUN 1C DEB", "group": "fengyun-1c-debris", "lat": -61.14525130684431, "lon": 20.33169344136254, "alt_km": 1133.9091496121746, "timestamp": "2025-12-21T20:41:08.233861+00:00", "meta": {"OBJECT_NAME": "FENGYUN 1C DEB", "OBJECT_ID": "1999-025HP", "EPOCH": "2025-12-21T09:50:41.985024", "MEAN_MOTION": 13.70432904, "ECCENTRICITY": 0.02233033, "INCLINATION": 98.8766, "RA_OF_ASC_NODE": 216.3905, "ARG_OF_PERICENTER": 101.3585, "MEAN_ANOMALY": 72.1684, "EPHEMERIS_TYPE": 0, "CLASSIFICATION_TYPE": "U", "NORAD_CAT_ID": 29917, "ELEMENT_SET_NO": 999, "REV_AT_EPOCH": 94249, "BSTAR": 0.0011822071, "MEAN_MOTION_DOT": 1.209e-05, "MEAN_MOTION_DDOT": 0}, "tle": {"line1": "1 29917U 99025HP  25355.41020816  .00001209  00000+0  11822-2 0  9992", "line2": "2 29917  98.8766 216.3905 0223303 101.3585  72.1684 13.70432904942495"}}, "geometry": {"type": "Point", "coordinates": [20.33169344136254, -61.14525130684431]}}, {"type": "Feature", "properties": {"norad_id": 29918, "name": "FENGYUN 1C DEB", "group": "fengyun-1c-debris", "lat": -17.676944480839072, "lon": 81.35628053710239, "alt_km": 778.9396942696285, "timestamp": "2025-12-21T20:41:08.233870+00:00", "meta": {"OBJECT_NAME": "FENGYUN 1C DEB", "OBJECT_ID": "1999-025HQ", "EPOCH": "2025-12-21T12:26:48.973632", "MEAN_MOTION": 14.33661182, "ECCENTRICITY": 0.00132758, "INCLINATION": 98.8544, "RA_OF_ASC_NODE": 78.1576, "ARG_OF_PERICENTER": 288.4454, "MEAN_ANOMALY": 82.9324, "EPHEMERIS_TYPE": 0, "CLASSIFICATION_TYPE": "U", "NORAD_CAT_ID": 29918, "ELEMENT_SET_NO": 999, "REV_AT_EPOCH": 97920, "BSTAR": 0.0011277452, "MEAN_MOTION_DOT": 3.085e-05, "MEAN_MOTION_DDOT": 0}, "tle": {"line1": "1 29918U 99025HQ  25355.51862238  .00003085  00000+0  11277-2 0  9994", "line2": "2 29918  98.8544  78.1576 0013275 288.4454  82.9324 14.33661182979206"}}, "geometry": {"type": "Point", "coordinates": [81.35628053710239, -17.676944480839072]}}]}